{"fetched_at":"2026-03-29T16:36:15Z","count":15609,"tles":[{"name":"STARLINK-34650","line1":"1 66258U 25245AA  26087.65528160  .00031698  00000+0  10771-2 0  9995","line2":"2 66258  53.1568 195.5538 0001012  69.1663 290.9446 15.30221171 24168","category":"Starlink"}]}